start=new Date('2023-03-27T00:00:00.000Z').valueOf();
sats=[{"COUNTRY_CODE":"US","MEAN_MOTION_DDOT":"0.0000000000000","LAUNCH_DATE":"2019-11-11","ELEMENT_SET_NO":"999","TLE_LINE2":"2 44713  53.0545 349.3787 0002429  37.7324 322.3835 15.06401557186158","MEAN_MOTION":"15.06401557","APOAPSIS":"548.891","REF_FRAME":"TEME","SEMIMAJOR_AXIS":"6925.344","ECCENTRICITY":"0.00024290","RA_OF_ASC_NODE":"349.3787","BSTAR":"0.00205610000000","TIME_SYSTEM":"UTC","CLASSIFICATION_TYPE":"U","TLE_LINE1":"1 44713U 19074A   23085.92541741  .00030479  00000-0  20561-2 0  9990","OBJECT_NAME":"STARLINK-1007","ARG_OF_PERICENTER":"37.7324","OBJECT_TYPE":"PAYLOAD","NORAD_CAT_ID":"44713","FILE":"3871964","PERIAPSIS":"545.527","INCLINATION":"53.0545","MEAN_MOTION_DOT":"0.00030479","OBJECT_ID":"2019-074A","MEAN_ELEMENT_THEORY":"SGP4","PERIOD":"95.592","EPHEMERIS_TYPE":"0","CENTER_NAME":"EARTH","GP_ID":"228913150","REV_AT_EPOCH":"18615","EPOCH":"2023-03-26T22:12:36.064224","DECAY_DATE":null,"SITE":"AFETR","MEAN_ANOMALY":"322.3835","RCS_SIZE":"LARGE"},{"RCS_SIZE":"LARGE","SITE":"AFETR","MEAN_ANOMALY":"258.4364","EPOCH":"2023-03-26T21:42:07.776288","DECAY_DATE":null,"REV_AT_EPOCH":"18615","GP_ID":"228913401","EPHEMERIS_TYPE":"0","CENTER_NAME":"EARTH","PERIOD":"95.594","MEAN_ELEMENT_THEORY":"SGP4","OBJECT_ID":"2019-074B","MEAN_MOTION_DOT":"0.00025892","INCLINATION":"53.0543","FILE":"3871964","PERIAPSIS":"546.464","NORAD_CAT_ID":"44714","ARG_OF_PERICENTER":"101.6758","OBJECT_TYPE":"PAYLOAD","OBJECT_NAME":"STARLINK-1008","TLE_LINE1":"1 44714U 19074B   23085.90425667  .00025892  00000-0  17519-2 0  9999","TIME_SYSTEM":"UTC","CLASSIFICATION_TYPE":"U","BSTAR":"0.00175190000000","ECCENTRICITY":"0.00011910","RA_OF_ASC_NODE":"349.4766","REF_FRAME":"TEME","SEMIMAJOR_AXIS":"6925.424","APOAPSIS":"548.113","TLE_LINE2":"2 44714  53.0543 349.4766 0001191 101.6758 258.4364 15.06375523186151","ELEMENT_SET_NO":"999","MEAN_MOTION":"15.06375523","COUNTRY_CODE":"US","MEAN_MOTION_DDOT":"0.0000000000000","LAUNCH_DATE":"2019-11-11"},{"MEAN_ANOMALY":"264.1666","SITE":"AFETR","EPOCH":"2023-03-26T21:26:12.244128","DECAY_DATE":null,"RCS_SIZE":"LARGE","GP_ID":"228914152","REV_AT_EPOCH":"18614","PERIOD":"95.593","MEAN_ELEMENT_THEORY":"SGP4","EPHEMERIS_TYPE":"0","CENTER_NAME":"EARTH","MEAN_MOTION_DOT":"0.00038075","OBJECT_ID":"2019-074C","NORAD_CAT_ID":"44715","INCLINATION":"53.0552","FILE":"3871964","PERIAPSIS":"546.324","TIME_SYSTEM":"UTC","CLASSIFICATION_TYPE":"U","ARG_OF_PERICENTER":"95.9474","OBJECT_TYPE":"PAYLOAD","OBJECT_NAME":"STARLINK-1009","TLE_LINE1":"1 44715U 19074C   23085.89319727  .00038075  00000-0  25619-2 0  9994","REF_FRAME":"TEME","SEMIMAJOR_AXIS":"6925.376","APOAPSIS":"548.158","BSTAR":"0.00256190000000","ECCENTRICITY":"0.00013240","RA_OF_ASC_NODE":"349.5235","MEAN_MOTION":"15.06391001","TLE_LINE2":"2 44715  53.0552 349.5235 0001324  95.9474 264.1666 15.06391001186149","ELEMENT_SET_NO":"999","MEAN_MOTION_DDOT":"0.0000000000000","COUNTRY_CODE":"US","LAUNCH_DATE":"2019-11-11"},{"REV_AT_EPOCH":"18613","GP_ID":"228914653","RCS_SIZE":"LARGE","DECAY_DATE":null,"EPOCH":"2023-03-26T21:52:44.586624","MEAN_ANOMALY":"256.5709","SITE":"AFETR","OBJECT_ID":"2019-074D","MEAN_MOTION_DOT":"0.00030857","CENTER_NAME":"EARTH","EPHEMERIS_TYPE":"0","MEAN_ELEMENT_THEORY":"SGP4","PERIOD":"95.593","TLE_LINE1":"1 44716U 19074D   23085.91162716  .00030857  00000-0  20821-2 0  9992","OBJECT_NAME":"STARLINK-1010","OBJECT_TYPE":"PAYLOAD","ARG_OF_PERICENTER":"103.5414","TIME_SYSTEM":"UTC","CLASSIFICATION_TYPE":"U","FILE":"3871964","PERIAPSIS":"546.418","INCLINATION":"53.0546","NORAD_CAT_ID":"44716","LAUNCH_DATE":"2019-11-11","COUNTRY_CODE":"US","MEAN_MOTION_DDOT":"0.0000000000000","ELEMENT_SET_NO":"999","TLE_LINE2":"2 44716  53.0546 349.4414 0001204 103.5414 256.5709 15.06387568186133","MEAN_MOTION":"15.06387568","RA_OF_ASC_NODE":"349.4414","ECCENTRICITY":"0.00012040","BSTAR":"0.00208210000000","APOAPSIS":"548.085","REF_FRAME":"TEME","SEMIMAJOR_AXIS":"6925.387"},{"MEAN_MOTION_DOT":"0.00017888","OBJECT_ID":"2019-074E","MEAN_ELEMENT_THEORY":"SGP4","PERIOD":"95.595","CENTER_NAME":"EARTH","EPHEMERIS_TYPE":"0","GP_ID":"228914903","REV_AT_EPOCH":"18575","DECAY_DATE":null,"EPOCH":"2023-03-26T02:43:34.536288","SITE":"AFETR","MEAN_ANOMALY":"223.5563","RCS_SIZE":"LARGE","LAUNCH_DATE":"2019-11-11","COUNTRY_CODE":"US","MEAN_MOTION_DDOT":"0.0000000000000","ELEMENT_SET_NO":"999","TLE_LINE2":"2 44717  53.0545  13.0217 0001237 136.5523 223.5563 15.06348334185758","MEAN_MOTION":"15.06348334","APOAPSIS":"548.229","SEMIMAJOR_AXIS":"6925.507","REF_FRAME":"TEME","RA_OF_ASC_NODE":"13.0217","ECCENTRICITY":"0.00012370","BSTAR":"0.00121840000000","CLASSIFICATION_TYPE":"U","TIME_SYSTEM":"UTC","TLE_LINE1":"1 44717U 19074E   23085.11359417  .00017888  00000-0  12184-2 0  9993","OBJECT_NAME":"STARLINK-1011","OBJECT_TYPE":"PAYLOAD","ARG_OF_PERICENTER":"136.5523","NORAD_CAT_ID":"44717","FILE":"3871964","PERIAPSIS":"546.515","INCLINATION":"53.0545"},{"SITE":"AFETR","MEAN_ANOMALY":"257.1303","DECAY_DATE":null,"EPOCH":"2023-03-26T22:45:49.750272","RCS_SIZE":"LARGE","GP_ID":"228915153","REV_AT_EPOCH":"18615","PERIOD":"95.591","MEAN_ELEMENT_THEORY":"SGP4","CENTER_NAME":"EARTH","EPHEMERIS_TYPE":"0","MEAN_MOTION_DOT":"0.00036656","OBJECT_ID":"2019-074F","NORAD_CAT_ID":"44718","INCLINATION":"53.0541","FILE":"3871964","PERIAPSIS":"546.355","CLASSIFICATION_TYPE":"U","TIME_SYSTEM":"UTC","ARG_OF_PERICENTER":"102.9819","OBJECT_TYPE":"PAYLOAD","OBJECT_NAME":"STARLINK-1012","TLE_LINE1":"1 44718U 19074F   23085.94849248  .00036656  00000-0  24663-2 0  9990","REF_FRAME":"TEME","SEMIMAJOR_AXIS":"6925.315","APOAPSIS":"548.005","BSTAR":"0.00246630000000","RA_OF_ASC_NODE":"349.2743","ECCENTRICITY":"0.00011910","MEAN_MOTION":"15.06410939","TLE_LINE2":"2 44718  53.0541 349.2743 0001191 102.9819 257.1303 15.06410939186158","ELEMENT_SET_NO":"999","LAUNCH_DATE":"2019-11-11","COUNTRY_CODE":"US","MEAN_MOTION_DDOT":"0.0000000000000"},{"GP_ID":"228915904","REV_AT_EPOCH":"18728","DECAY_DATE":null,"EPOCH":"2023-03-26T22:56:26.636640","MEAN_ANOMALY":"267.1704","SITE":"AFETR","RCS_SIZE":"LARGE","MEAN_MOTION_DOT":"0.00030628","OBJECT_ID":"2019-074G","MEAN_ELEMENT_THEORY":"SGP4","PERIOD":"95.593","CENTER_NAME":"EARTH","EPHEMERIS_TYPE":"0","TIME_SYSTEM":"UTC","CLASSIFICATION_TYPE":"U","TLE_LINE1":"1 44719U 19074G   23085.95586385  .00030628  00000-0  20670-2 0  9999","OBJECT_NAME":"STARLINK-1013","OBJECT_TYPE":"PAYLOAD","ARG_OF_PERICENTER":"92.9423","NORAD_CAT_ID":"44719","FILE":"3871964","PERIAPSIS":"546.422","INCLINATION":"53.0535","LAUNCH_DATE":"2019-11-11","MEAN_MOTION_DDOT":"0.0000000000000","COUNTRY_CODE":"US","TLE_LINE2":"2 44719  53.0535 349.2402 0001209  92.9423 267.1704 15.06385124187281","ELEMENT_SET_NO":"999","MEAN_MOTION":"15.06385124","APOAPSIS":"548.096","REF_FRAME":"TEME","SEMIMAJOR_AXIS":"6925.394","RA_OF_ASC_NODE":"349.2402","ECCENTRICITY":"0.00012090","BSTAR":"0.00206700000000"},{"CLASSIFICATION_TYPE":"U","TIME_SYSTEM":"UTC","OBJECT_NAME":"STARLINK-1014","TLE_LINE1":"1 44720U 19074H   23085.90698764  .00000350  00000-0  42398-4 0  9993","ARG_OF_PERICENTER":"63.5971","OBJECT_TYPE":"PAYLOAD","NORAD_CAT_ID":"44720","FILE":"3871964","PERIAPSIS":"546.292","INCLINATION":"53.0546","LAUNCH_DATE":"2019-11-11","COUNTRY_CODE":"US","MEAN_MOTION_DDOT":"0.0000000000000","ELEMENT_SET_NO":"999","TLE_LINE2":"2 44720  53.0546 349.4495 0001339  63.5971 296.5155 15.06398288186151","MEAN_MOTION":"15.06398288","APOAPSIS":"548.146","REF_FRAME":"TEME","SEMIMAJOR_AXIS":"6925.354","RA_OF_ASC_NODE":"349.4495","ECCENTRICITY":"0.00013390","BSTAR":"0.00004239800000","GP_ID":"228914154","REV_AT_EPOCH":"18615","DECAY_DATE":null,"EPOCH":"2023-03-26T21:46:03.732096","MEAN_ANOMALY":"296.5155","SITE":"AFETR","RCS_SIZE":"LARGE","MEAN_MOTION_DOT":"0.00000350","OBJECT_ID":"2019-074H","MEAN_ELEMENT_THEORY":"SGP4","PERIOD":"95.592","CENTER_NAME":"EARTH","EPHEMERIS_TYPE":"0"},{"REV_AT_EPOCH":"18614","GP_ID":"228914404","RCS_SIZE":"LARGE","DECAY_DATE":null,"EPOCH":"2023-03-26T21:31:31.197504","MEAN_ANOMALY":"259.8128","SITE":"AFETR","OBJECT_ID":"2019-074J","MEAN_MOTION_DOT":"0.00029888","CENTER_NAME":"EARTH","EPHEMERIS_TYPE":"0","MEAN_ELEMENT_THEORY":"SGP4","PERIOD":"95.593","OBJECT_NAME":"STARLINK-1015","TLE_LINE1":"1 44721U 19074J   23085.89688886  .00029888  00000-0  20177-2 0  9992","OBJECT_TYPE":"PAYLOAD","ARG_OF_PERICENTER":"100.2999","TIME_SYSTEM":"UTC","CLASSIFICATION_TYPE":"U","FILE":"3871964","PERIAPSIS":"546.408","INCLINATION":"53.0546","NORAD_CAT_ID":"44721","LAUNCH_DATE":"2019-11-11","COUNTRY_CODE":"US","MEAN_MOTION_DDOT":"0.0000000000000","TLE_LINE2":"2 44721  53.0546 349.5077 0001226 100.2999 259.8128 15.06385755186149","MEAN_MOTION":"15.06385755","ELEMENT_SET_NO":"999","RA_OF_ASC_NODE":"349.5077","ECCENTRICITY":"0.00012260","BSTAR":"0.00201770000000","APOAPSIS":"548.106","SEMIMAJOR_AXIS":"6925.392","REF_FRAME":"TEME"},{"PERIAPSIS":"546.331","FILE":"3871964","INCLINATION":"53.0546","NORAD_CAT_ID":"44723","OBJECT_NAME":"STARLINK-1017","TLE_LINE1":"1 44723U 19074L   23085.91529476  .00063994  00000-0  42709-2 0  9997","OBJECT_TYPE":"PAYLOAD","ARG_OF_PERICENTER":"128.8556","TIME_SYSTEM":"UTC","CLASSIFICATION_TYPE":"U","RA_OF_ASC_NODE":"349.4289","ECCENTRICITY":"0.00010680","BSTAR":"0.00427090000000","APOAPSIS":"547.810","SEMIMAJOR_AXIS":"6925.206","REF_FRAME":"TEME","LAUNCH_DATE":"2019-11-11","COUNTRY_CODE":"US","MEAN_MOTION_DDOT":"0.0000000000000","MEAN_MOTION":"15.06446579","TLE_LINE2":"2 44723  53.0546 349.4289 0001068 128.8556 231.2529 15.06446579186156","ELEMENT_SET_NO":"999","RCS_SIZE":"LARGE","DECAY_DATE":null,"EPOCH":"2023-03-26T21:58:01.467264","SITE":"AFETR","MEAN_ANOMALY":"231.2529","REV_AT_EPOCH":"18615","GP_ID":"228915654","CENTER_NAME":"EARTH","EPHEMERIS_TYPE":"0","MEAN_ELEMENT_THEORY":"SGP4","PERIOD":"95.589","OBJECT_ID":"2019-074L","MEAN_MOTION_DOT":"0.00063994"}];
